{"type": "FeatureCollection", "features": [ {"type": "Feature", "properties": {"norad_id": 57401, "name": "TIANMU-1 09", "group": "weather", "lat": -10.918350474902326, "lon": -145.9212756654683, "alt_km": 487.2582568512744, "timestamp": "2025-12-12T07:43:20.146227+00:00", "meta": {"OBJECT_NAME": "TIANMU-1 09", "OBJECT_ID": "2023-101C", "EPOCH": "2025-12-12T00:36:13.158720", "MEAN_MOTION": 15.28067758, "ECCENTRICITY": 0.000678, "INCLINATION": 97.2825, "RA_OF_ASC_NODE": 35.2024, "ARG_OF_PERICENTER": 85.8842, "MEAN_ANOMALY": 274.3173, "EPHEMERIS_TYPE": 0, "CLASSIFICATION_TYPE": "U", "NORAD_CAT_ID": 57401, "ELEMENT_SET_NO": 999, "REV_AT_EPOCH": 13304, "BSTAR": 0.00043768335, "MEAN_MOTION_DOT": 0.00011922, "MEAN_MOTION_DDOT": 0}, "tle": {"line1": "1 57401U 23101C   25346.02515230  .00011922  00000+0  43768-3 0  9997", "line2": "2 57401  97.2825  35.2024 0006780  85.8842 274.3173 15.28067758133041"}}, "geometry": {"type": "Point", "coordinates": [-145.9212756654683, -10.918350474902326]}}, {"type": "Feature", "properties": {"norad_id": 57402, "name": "TIANMU-1 10", "group": "weather", "lat": 2.509809911839782, "lon": 36.02006821866123, "alt_km": 483.52459885575263, "timestamp": "2025-12-12T07:43:20.146240+00:00", "meta": {"OBJECT_NAME": "TIANMU-1 10", "OBJECT_ID": "2023-101D", "EPOCH": "2025-12-11T23:51:11.036736", "MEAN_MOTION": 15.28057963, "ECCENTRICITY": 0.0008571, "INCLINATION": 97.2906, "RA_OF_ASC_NODE": 36.0208, "ARG_OF_PERICENTER": 85.6256, "MEAN_ANOMALY": 274.5963, "EPHEMERIS_TYPE": 0, "CLASSIFICATION_TYPE": "U", "NORAD_CAT_ID": 57402, "ELEMENT_SET_NO": 999, "REV_AT_EPOCH": 13303, "BSTAR": 0.00040297726, "MEAN_MOTION_DOT": 0.00010971, "MEAN_MOTION_DDOT": 0}, "tle": {"line1": "1 57402U 23101D   25345.99387774  .00010971  00000+0  40298-3 0  9991", "line2": "2 57402  97.2906  36.0208 0008571  85.6256 274.5963 15.28057963133037"}}, "geometry": {"type": "Point", "coordinates": [36.02006821866123, 2.509809911839782]}}, {"type": "Feature", "properties": {"norad_id": 57490, "name": "FENGYUN 3F", "group": "weather", "lat": 63.49919591670557, "lon": 36.71927671381854, "alt_km": 819.0915682541745, "timestamp": "2025-12-12T07:43:20.146251+00:00", "meta": {"OBJECT_NAME": "FENGYUN 3F", "OBJECT_ID": "2023-111A", "EPOCH": "2025-12-12T00:39:10.677024", "MEAN_MOTION": 14.19893294, "ECCENTRICITY": 6.696e-05, "INCLINATION": 98.7084, "RA_OF_ASC_NODE": 54.3321, "ARG_OF_PERICENTER": 100.391, "MEAN_ANOMALY": 259.7342, "EPHEMERIS_TYPE": 0, "CLASSIFICATION_TYPE": "U", "NORAD_CAT_ID": 57490, "ELEMENT_SET_NO": 999, "REV_AT_EPOCH": 12230, "BSTAR": 8.4790767e-05, "MEAN_MOTION_DOT": 1.36e-06, "MEAN_MOTION_DDOT": 0}, "tle": {"line1": "1 57490U 23111A   25346.02720691  .00000136  00000+0  84791-4 0  9992", "line2": "2 57490  98.7084  54.3321 0000669 100.3910 259.7342 14.19893294122306"}}, "geometry": {"type": "Point", "coordinates": [36.71927671381854, 63.49919591670557]}}, {"type": "Feature", "properties": {"norad_id": 58584, "name": "ARKTIKA-M 2", "group": "weather", "lat": -15.59243771387994, "lon": 166.8288047398739, "alt_km": 5485.680052853498, "timestamp": "2025-12-12T07:43:20.146263+00:00", "meta": {"OBJECT_NAME": "ARKTIKA-M 2", "OBJECT_ID": "2023-198A", "EPOCH": "2025-12-08T20:10:13.977120", "MEAN_MOTION": 2.0060476, "ECCENTRICITY": 0.68646991, "INCLINATION": 63.2247, "RA_OF_ASC_NODE": 175.3152, "ARG_OF_PERICENTER": 268.1185, "MEAN_ANOMALY": 18.8267, "EPHEMERIS_TYPE": 0, "CLASSIFICATION_TYPE": "U", "NORAD_CAT_ID": 58584, "ELEMENT_SET_NO": 999, "REV_AT_EPOCH": 1450, "BSTAR": 0, "MEAN_MOTION_DOT": 1.66e-06, "MEAN_MOTION_DDOT": 0}, "tle": {"line1": "1 58584U 23198A   25342.84043955  .00000166  00000+0  00000+0 0  9998", "line2": "2 58584  63.2247 175.3152 6864699 268.1185  18.8267  2.00604760 14506"}}, "geometry": {"type": "Point", "coordinates": [166.8288047398739, -15.59243771387994]}}, {"type": "Feature", "properties": {"norad_id": 58645, "name": "TIANMU-1 11", "group": "weather", "lat": -7.08271104543366, "lon": -174.96790303984773, "alt_km": 499.1523310930961, "timestamp": "2025-12-12T07:43:20.146276+00:00", "meta": {"OBJECT_NAME": "TIANMU-1 11", "OBJECT_ID": "2023-205A", "EPOCH": "2025-12-12T00:36:10.983168", "MEAN_MOTION": 15.24585606, "ECCENTRICITY": 0.00079719, "INCLINATION": 97.3611, "RA_OF_ASC_NODE": 5.661, "ARG_OF_PERICENTER": 313.4288, "MEAN_ANOMALY": 46.6286, "EPHEMERIS_TYPE": 0, "CLASSIFICATION_TYPE": "U", "NORAD_CAT_ID": 58645, "ELEMENT_SET_NO": 999, "REV_AT_EPOCH": 10898, "BSTAR": 0.00038177485, "MEAN_MOTION_DOT": 9.35e-05, "MEAN_MOTION_DDOT": 0}, "tle": {"line1": "1 58645U 23205A   25346.02512712  .00009350  00000+0  38177-3 0  9995", "line2": "2 58645  97.3611   5.6610 0007971 313.4288  46.6286 15.24585606108988"}}, "geometry": {"type": "Point", "coordinates": [-174.96790303984773, -7.08271104543366]}}, {"type": "Feature", "properties": {"norad_id": 58646, "name": "TIANMU-1 12", "group": "weather", "lat": 39.069092576916546, "lon": -0.2651415833248823, "alt_km": 490.5912797149622, "timestamp": "2025-12-12T07:43:20.146287+00:00", "meta": {"OBJECT_NAME": "TIANMU-1 12", "OBJECT_ID": "2023-205B", "EPOCH": "2025-12-12T01:14:54.452832", "MEAN_MOTION": 15.24469229, "ECCENTRICITY": 0.00058578, "INCLINATION": 97.36, "RA_OF_ASC_NODE": 5.493, "ARG_OF_PERICENTER": 294.3888, "MEAN_ANOMALY": 65.6738, "EPHEMERIS_TYPE": 0, "CLASSIFICATION_TYPE": "U", "NORAD_CAT_ID": 58646, "ELEMENT_SET_NO": 999, "REV_AT_EPOCH": 10897, "BSTAR": 0.00038195883, "MEAN_MOTION_DOT": 9.318e-05, "MEAN_MOTION_DDOT": 0}, "tle": {"line1": "1 58646U 23205B   25346.05201913  .00009318  00000+0  38196-3 0  9992", "line2": "2 58646  97.3600   5.4930 0005857 294.3888  65.6738 15.24469229108978"}}, "geometry": {"type": "Point", "coordinates": [-0.2651415833248823, 39.069092576916546]}}, {"type": "Feature", "properties": {"norad_id": 58647, "name": "TIANMU-1 13", "group": "weather", "lat": -35.12414480622861, "lon": -179.26010488414943, "alt_km": 496.13004545465446, "timestamp": "2025-12-12T07:43:20.146298+00:00", "meta": {"OBJECT_NAME": "TIANMU-1 13", "OBJECT_ID": "2023-205C", "EPOCH": "2025-12-12T00:28:43.601376", "MEAN_MOTION": 15.2451056, "ECCENTRICITY": 0.00060552, "INCLINATION": 97.3627, "RA_OF_ASC_NODE": 5.6621, "ARG_OF_PERICENTER": 270.3522, "MEAN_ANOMALY": 89.7022, "EPHEMERIS_TYPE": 0, "CLASSIFICATION_TYPE": "U", "NORAD_CAT_ID": 58647, "ELEMENT_SET_NO": 999, "REV_AT_EPOCH": 10896, "BSTAR": 0.00040281056, "MEAN_MOTION_DOT": 9.844e-05, "MEAN_MOTION_DDOT": 0}, "tle": {"line1": "1 58647U 23205C   25346.01994909  .00009844  00000+0  40281-3 0  9995", "line2": "2 58647  97.3627   5.6621 0006055 270.3522  89.7022 15.24510560108964"}}, "geometry": {"type": "Point", "coordinates": [-179.26010488414943, -35.12414480622861]}}, {"type": "Feature", "properties": {"norad_id": 58648, "name": "TIANMU-1 14", "group": "weather", "lat": -52.926991483514456, "lon": 15.152693954925704, "alt_km": 495.3096063926514, "timestamp": "2025-12-12T07:43:20.146308+00:00", "meta": {"OBJECT_NAME": "TIANMU-1 14", "OBJECT_ID": "2023-205D", "EPOCH": "2025-12-12T00:04:48.606240", "MEAN_MOTION": 15.24494446, "ECCENTRICITY": 0.00068601, "INCLINATION": 97.356, "RA_OF_ASC_NODE": 4.9951, "ARG_OF_PERICENTER": 275.8209, "MEAN_ANOMALY": 84.2247, "EPHEMERIS_TYPE": 0, "CLASSIFICATION_TYPE": "U", "NORAD_CAT_ID": 58648, "ELEMENT_SET_NO": 999, "REV_AT_EPOCH": 10896, "BSTAR": 0.00041317062, "MEAN_MOTION_DOT": 0.00010096, "MEAN_MOTION_DDOT": 0}, "tle": {"line1": "1 58648U 23205D   25346.00334035  .00010096  00000+0  41317-3 0  9995", "line2": "2 58648  97.3560   4.9951 0006860 275.8209  84.2247 15.24494446108968"}}, "geometry": {"type": "Point", "coordinates": [15.152693954925704, -52.926991483514456]}}, {"type": "Feature", "properties": {"norad_id": 58660, "name": "TIANMU-1 19", "group": "weather", "lat": -16.30556045167957, "lon": -84.83093194327101, "alt_km": 485.7878899040725, "timestamp": "2025-12-12T07:43:20.146318+00:00", "meta": {"OBJECT_NAME": "TIANMU-1 19", "OBJECT_ID": "2023-208A", "EPOCH": "2025-12-11T23:00:21.224736", "MEAN_MOTION": 15.2782678, "ECCENTRICITY": 0.0004079, "INCLINATION": 97.4384, "RA_OF_ASC_NODE": 96.997, "ARG_OF_PERICENTER": 256.6416, "MEAN_ANOMALY": 103.4369, "EPHEMERIS_TYPE": 0, "CLASSIFICATION_TYPE": "U", "NORAD_CAT_ID": 58660, "ELEMENT_SET_NO": 999, "REV_AT_EPOCH": 10870, "BSTAR": 0.00049230808, "MEAN_MOTION_DOT": 0.00013316, "MEAN_MOTION_DDOT": 0}, "tle": {"line1": "1 58660U 23208A   25345.95857899  .00013316  00000+0  49231-3 0  9994", "line2": "2 58660  97.4384  96.9970 0004079 256.6416 103.4369 15.27826780108700"}}, "geometry": {"type": "Point", "coordinates": [-84.83093194327101, -16.30556045167957]}}, {"type": "Feature", "properties": {"norad_id": 58661, "name": "TIANMU-1 20", "group": "weather", "lat": -82.4697826907727, "lon": -163.13527275235643, "alt_km": 481.74635712555937, "timestamp": "2025-12-12T07:43:20.146328+00:00", "meta": {"OBJECT_NAME": "TIANMU-1 20", "OBJECT_ID": "2023-208B", "EPOCH": "2025-12-12T00:16:01.639776", "MEAN_MOTION": 15.29019321, "ECCENTRICITY": 0.00063289, "INCLINATION": 97.4322, "RA_OF_ASC_NODE": 97.4964, "ARG_OF_PERICENTER": 269.1784, "MEAN_ANOMALY": 90.873, "EPHEMERIS_TYPE": 0, "CLASSIFICATION_TYPE": "U", "NORAD_CAT_ID": 58661, "ELEMENT_SET_NO": 999, "REV_AT_EPOCH": 10878, "BSTAR": 0.00050194983, "MEAN_MOTION_DOT": 0.00014088, "MEAN_MOTION_DDOT": 0}, "tle": {"line1": "1 58661U 23208B   25346.01113009  .00014088  00000+0  50195-3 0  9999", "line2": "2 58661  97.4322  97.4964 0006328 269.1784  90.8730 15.29019321108784"}}, "geometry": {"type": "Point", "coordinates": [-163.13527275235643, -82.4697826907727]}}]}